{
  "crs": {
    "type": "name",
    "properties": {
      "name": "urn:ogc:def:crs:OGC:1.3:CRS84"
    }
  },
  "name": "20240307T130748DT2303_000001_ft",
  "type": "FeatureCollection",
  "features": [
    {
      "type": "Feature",
      "geometry": {
        "type": "LineString",
        "coordinates": [
          [-82.0383729394598, 76.1899448994205],
          [-82.0354742051546, 76.189857296298]
        ]
      },
      "properties": {
        "ID": "ft0",
        "disp_m": 77.8871861065171,
        "speed_ms": 0.000938856667933692,
        "timestamp1": "2024-03-07 13:07:48.038+00",
        "timestamp2": "2024-03-08 12:10:27.652+00",
        "deltatime_hrs": 23.044337025
      }
    },
    {
      "type": "Feature",
      "geometry": {
        "type": "LineString",
        "coordinates": [
          [-82.4695524038837, 76.7375278604101],
          [-82.4571257581447, 76.7336302078601]
        ]
      },
      "properties": {
        "ID": "ft1",
        "disp_m": 539.173139627997,
        "speed_ms": 0.00649922436045141,
        "timestamp1": "2024-03-07 13:07:48.038+00",
        "timestamp2": "2024-03-08 12:10:27.652+00",
        "deltatime_hrs": 23.044337025
      }
    },
    {
      "type": "Feature",
      "geometry": {
        "type": "LineString",
        "coordinates": [
          [-82.3423299753282, 76.0664037894893],
          [-82.3430639283226, 76.0667216548458]
        ]
      },
      "properties": {
        "ID": "ft2",
        "disp_m": 40.6022555153495,
        "speed_ms": 0.000489421947682146,
        "timestamp1": "2024-03-07 13:07:48.038+00",
        "timestamp2": "2024-03-08 12:10:27.652+00",
        "deltatime_hrs": 23.044337025
      }
    },
    {
      "type": "Feature",
      "geometry": {
        "type": "LineString",
        "coordinates": [
          [-81.788852977664, 76.2523743396535],
          [-81.7886995140303, 76.2525853487971]
        ]
      },
      "properties": {
        "ID": "ft3",
        "disp_m": 23.9044922012699,
        "speed_ms": 0.000288146138262572,
        "timestamp1": "2024-03-07 13:07:48.038+00",
        "timestamp2": "2024-03-08 12:10:27.652+00",
        "deltatime_hrs": 23.044337025
      }
    },
    {
      "type": "Feature",
      "geometry": {
        "type": "LineString",
        "coordinates": [
          [-81.8302756426791, 76.142010201718],
          [-81.8296459717202, 76.1422386944225]
        ]
      },
      "properties": {
        "ID": "ft4",
        "disp_m": 30.5651631333952,
        "speed_ms": 0.000368434252779714,
        "timestamp1": "2024-03-07 13:07:48.038+00",
        "timestamp2": "2024-03-08 12:10:27.652+00",
        "deltatime_hrs": 23.044337025
      }
    },
    {
      "type": "Feature",
      "geometry": {
        "type": "LineString",
        "coordinates": [
          [-81.6365945302026, 76.2364472866342],
          [-81.6336338575729, 76.2372914954849]
        ]
      },
      "properties": {
        "ID": "ft5",
        "disp_m": 122.752666720108,
        "speed_ms": 0.00147966777871788,
        "timestamp1": "2024-03-07 13:07:48.038+00",
        "timestamp2": "2024-03-08 12:10:27.652+00",
        "deltatime_hrs": 23.044337025
      }
    },
    {
      "type": "Feature",
      "geometry": {
        "type": "LineString",
        "coordinates": [
          [-81.980910263153, 76.2622966686676],
          [-81.9803878456392, 76.2623527700903]
        ]
      },
      "properties": {
        "ID": "ft6",
        "disp_m": 15.2040675441472,
        "speed_ms": 0.000183270713798998,
        "timestamp1": "2024-03-07 13:07:48.038+00",
        "timestamp2": "2024-03-08 12:10:27.652+00",
        "deltatime_hrs": 23.044337025
      }
    },
    {
      "type": "Feature",
      "geometry": {
        "type": "LineString",
        "coordinates": [
          [-81.6054712199088, 76.2130016030393],
          [-81.6056474921486, 76.2127339851781]
        ]
      },
      "properties": {
        "ID": "ft7",
        "disp_m": 30.2402392138649,
        "speed_ms": 0.000364517600969941,
        "timestamp1": "2024-03-07 13:07:48.038+00",
        "timestamp2": "2024-03-08 12:10:27.652+00",
        "deltatime_hrs": 23.044337025
      }
    },
    {
      "type": "Feature",
      "geometry": {
        "type": "LineString",
        "coordinates": [
          [-81.5120685654479, 76.1556768115798],
          [-81.5119338643856, 76.1555069291645]
        ]
      },
      "properties": {
        "ID": "ft8",
        "disp_m": 19.3024380857625,
        "speed_ms": 0.000232672710494532,
        "timestamp1": "2024-03-07 13:07:48.038+00",
        "timestamp2": "2024-03-08 12:10:27.652+00",
        "deltatime_hrs": 23.044337025
      }
    },
    {
      "type": "Feature",
      "geometry": {
        "type": "LineString",
        "coordinates": [
          [-81.7941067792371, 76.2562788607633],
          [-81.7947269376595, 76.2558817211916]
        ]
      },
      "properties": {
        "ID": "ft9",
        "disp_m": 47.2876614973243,
        "speed_ms": 0.000570008219927712,
        "timestamp1": "2024-03-07 13:07:48.038+00",
        "timestamp2": "2024-03-08 12:10:27.652+00",
        "deltatime_hrs": 23.044337025
      }
    },
    {
      "type": "Feature",
      "geometry": {
        "type": "LineString",
        "coordinates": [
          [-81.6697443888774, 76.2240788367522],
          [-81.6711108972723, 76.2245592899193]
        ]
      },
      "properties": {
        "ID": "ft10",
        "disp_m": 64.7836694140615,
        "speed_ms": 0.000780906116179673,
        "timestamp1": "2024-03-07 13:07:48.038+00",
        "timestamp2": "2024-03-08 12:10:27.652+00",
        "deltatime_hrs": 23.044337025
      }
    },
    {
      "type": "Feature",
      "geometry": {
        "type": "LineString",
        "coordinates": [
          [-81.7633586338097, 76.2468505143752],
          [-81.7635216739717, 76.2467470424876]
        ]
      },
      "properties": {
        "ID": "ft11",
        "disp_m": 12.3350130729096,
        "speed_ms": 0.00014868696446053,
        "timestamp1": "2024-03-07 13:07:48.038+00",
        "timestamp2": "2024-03-08 12:10:27.652+00",
        "deltatime_hrs": 23.044337025
      }
    },
    {
      "type": "Feature",
      "geometry": {
        "type": "LineString",
        "coordinates": [
          [-81.9865515433476, 76.3062533801451],
          [-81.9869710153137, 76.3063789329111]
        ]
      },
      "properties": {
        "ID": "ft12",
        "disp_m": 17.8720212532096,
        "speed_ms": 0.00021543038286274,
        "timestamp1": "2024-03-07 13:07:48.038+00",
        "timestamp2": "2024-03-08 12:10:27.652+00",
        "deltatime_hrs": 23.044337025
      }
    },
    {
      "type": "Feature",
      "geometry": {
        "type": "LineString",
        "coordinates": [
          [-82.300954852486, 76.1217618520538],
          [-82.3000294127548, 76.1220688886123]
        ]
      },
      "properties": {
        "ID": "ft13",
        "disp_m": 42.2986693151819,
        "speed_ms": 0.000509870618216594,
        "timestamp1": "2024-03-07 13:07:48.038+00",
        "timestamp2": "2024-03-08 12:10:27.652+00",
        "deltatime_hrs": 23.044337025
      }
    },
    {
      "type": "Feature",
      "geometry": {
        "type": "LineString",
        "coordinates": [
          [-82.2995662309659, 76.1240409849963],
          [-82.2986980782594, 76.1234759321211]
        ]
      },
      "properties": {
        "ID": "ft14",
        "disp_m": 67.2251477988322,
        "speed_ms": 0.000810335838522231,
        "timestamp1": "2024-03-07 13:07:48.038+00",
        "timestamp2": "2024-03-08 12:10:27.652+00",
        "deltatime_hrs": 23.044337025
      }
    },
    {
      "type": "Feature",
      "geometry": {
        "type": "LineString",
        "coordinates": [
          [-82.1776960602675, 76.0320012306257],
          [-82.1808020301646, 76.0320387142418]
        ]
      },
      "properties": {
        "ID": "ft15",
        "disp_m": 83.8270199439406,
        "speed_ms": 0.00101045577021807,
        "timestamp1": "2024-03-07 13:07:48.038+00",
        "timestamp2": "2024-03-08 12:10:27.652+00",
        "deltatime_hrs": 23.044337025
      }
    },
    {
      "type": "Feature",
      "geometry": {
        "type": "LineString",
        "coordinates": [
          [-83.0955354450319, 75.7854122629261],
          [-83.0957763267576, 75.7854362225743]
        ]
      },
      "properties": {
        "ID": "ft16",
        "disp_m": 7.12621965790137,
        "speed_ms": 0.000085899865914157,
        "timestamp1": "2024-03-07 13:07:48.038+00",
        "timestamp2": "2024-03-08 12:10:27.652+00",
        "deltatime_hrs": 23.044337025
      }
    },
    {
      "type": "Feature",
      "geometry": {
        "type": "LineString",
        "coordinates": [
          [-82.3290903651666, 75.841368044417],
          [-82.3309705858924, 75.8427696861316]
        ]
      },
      "properties": {
        "ID": "ft17",
        "disp_m": 164.673515886525,
        "speed_ms": 0.0019849841309033,
        "timestamp1": "2024-03-07 13:07:48.038+00",
        "timestamp2": "2024-03-08 12:10:27.652+00",
        "deltatime_hrs": 23.044337025
      }
    },
    {
      "type": "Feature",
      "geometry": {
        "type": "LineString",
        "coordinates": [
          [-81.7487817421632, 76.6686680337401],
          [-81.8004368569697, 76.469857659961]
        ]
      },
      "properties": {
        "ID": "ft18",
        "disp_m": 22234.22113385,
        "speed_ms": 0.268012593743975,
        "timestamp1": "2024-03-07 13:07:48.038+00",
        "timestamp2": "2024-03-08 12:10:27.652+00",
        "deltatime_hrs": 23.044337025
      }
    },
    {
      "type": "Feature",
      "geometry": {
        "type": "LineString",
        "coordinates": [
          [-81.8284289648594, 76.1412955528746],
          [-81.8299218662635, 76.1419576587758]
        ]
      },
      "properties": {
        "ID": "ft19",
        "disp_m": 84.0078986145794,
        "speed_ms": 0.00101263609222617,
        "timestamp1": "2024-03-07 13:07:48.038+00",
        "timestamp2": "2024-03-08 12:10:27.652+00",
        "deltatime_hrs": 23.044337025
      }
    },
    {
      "type": "Feature",
      "geometry": {
        "type": "LineString",
        "coordinates": [
          [-82.4440321967293, 75.8621214858024],
          [-82.447011171906, 75.8615316039495]
        ]
      },
      "properties": {
        "ID": "ft20",
        "disp_m": 104.587548451578,
        "speed_ms": 0.0012607043873984,
        "timestamp1": "2024-03-07 13:07:48.038+00",
        "timestamp2": "2024-03-08 12:10:27.652+00",
        "deltatime_hrs": 23.044337025
      }
    },
    {
      "type": "Feature",
      "geometry": {
        "type": "LineString",
        "coordinates": [
          [-81.6689295446238, 76.224143914294],
          [-81.6712265532179, 76.223824400707]
        ]
      },
      "properties": {
        "ID": "ft21",
        "disp_m": 70.7336324764129,
        "speed_ms": 0.000852627316730021,
        "timestamp1": "2024-03-07 13:07:48.038+00",
        "timestamp2": "2024-03-08 12:10:27.652+00",
        "deltatime_hrs": 23.044337025
      }
    },
    {
      "type": "Feature",
      "geometry": {
        "type": "LineString",
        "coordinates": [
          [-81.6373744688008, 76.2370333967968],
          [-81.6358147207376, 76.2369686095454]
        ]
      },
      "properties": {
        "ID": "ft22",
        "disp_m": 42.0651849641956,
        "speed_ms": 0.000507056184280286,
        "timestamp1": "2024-03-07 13:07:48.038+00",
        "timestamp2": "2024-03-08 12:10:27.652+00",
        "deltatime_hrs": 23.044337025
      }
    },
    {
      "type": "Feature",
      "geometry": {
        "type": "LineString",
        "coordinates": [
          [-81.7406585752165, 76.2514814964278],
          [-81.740051810801, 76.2516709401013]
        ]
      },
      "properties": {
        "ID": "ft23",
        "disp_m": 26.5809570203081,
        "speed_ms": 0.000320408400740607,
        "timestamp1": "2024-03-07 13:07:48.038+00",
        "timestamp2": "2024-03-08 12:10:27.652+00",
        "deltatime_hrs": 23.044337025
      }
    },
    {
      "type": "Feature",
      "geometry": {
        "type": "LineString",
        "coordinates": [
          [-81.7533283749627, 76.2589009923008],
          [-81.7588573996952, 76.2589373687497]
        ]
      },
      "properties": {
        "ID": "ft24",
        "disp_m": 146.719948626093,
        "speed_ms": 0.00176857078773026,
        "timestamp1": "2024-03-07 13:07:48.038+00",
        "timestamp2": "2024-03-08 12:10:27.652+00",
        "deltatime_hrs": 23.044337025
      }
    },
    {
      "type": "Feature",
      "geometry": {
        "type": "LineString",
        "coordinates": [
          [-81.4632282234669, 76.2404578779194],
          [-81.4656830846748, 76.2398487965494]
        ]
      },
      "properties": {
        "ID": "ft25",
        "disp_m": 94.2051350436861,
        "speed_ms": 0.00113555417278014,
        "timestamp1": "2024-03-07 13:07:48.038+00",
        "timestamp2": "2024-03-08 12:10:27.652+00",
        "deltatime_hrs": 23.044337025
      }
    },
    {
      "type": "Feature",
      "geometry": {
        "type": "LineString",
        "coordinates": [
          [-81.8018123784523, 76.1577100062403],
          [-81.8036831166957, 76.1573912512163]
        ]
      },
      "properties": {
        "ID": "ft26",
        "disp_m": 61.3542099101959,
        "speed_ms": 0.000739567212008587,
        "timestamp1": "2024-03-07 13:07:48.038+00",
        "timestamp2": "2024-03-08 12:10:27.652+00",
        "deltatime_hrs": 23.044337025
      }
    },
    {
      "type": "Feature",
      "geometry": {
        "type": "LineString",
        "coordinates": [
          [-82.0421827949451, 76.0376845200545],
          [-82.0444195901284, 76.0383109920343]
        ]
      },
      "properties": {
        "ID": "ft27",
        "disp_m": 92.3187675020202,
        "speed_ms": 0.001112815788802,
        "timestamp1": "2024-03-07 13:07:48.038+00",
        "timestamp2": "2024-03-08 12:10:27.652+00",
        "deltatime_hrs": 23.044337025
      }
    },
    {
      "type": "Feature",
      "geometry": {
        "type": "LineString",
        "coordinates": [
          [-81.8521102331105, 76.3158988772404],
          [-81.8587894650342, 76.3159899878183]
        ]
      },
      "properties": {
        "ID": "ft28",
        "disp_m": 176.746256771379,
        "speed_ms": 0.00213050965116642,
        "timestamp1": "2024-03-07 13:07:48.038+00",
        "timestamp2": "2024-03-08 12:10:27.652+00",
        "deltatime_hrs": 23.044337025
      }
    },
    {
      "type": "Feature",
      "geometry": {
        "type": "LineString",
        "coordinates": [
          [-82.2417293387246, 76.1184555230606],
          [-82.2428704788725, 76.1183992758454]
        ]
      },
      "properties": {
        "ID": "ft29",
        "disp_m": 31.2114573740128,
        "speed_ms": 0.000376224721117101,
        "timestamp1": "2024-03-07 13:07:48.038+00",
        "timestamp2": "2024-03-08 12:10:27.652+00",
        "deltatime_hrs": 23.044337025
      }
    },
    {
      "type": "Feature",
      "geometry": {
        "type": "LineString",
        "coordinates": [
          [-82.6022213390726, 75.8694174312314],
          [-82.6024613249184, 75.8690384009724]
        ]
      },
      "properties": {
        "ID": "ft30",
        "disp_m": 42.8127936385181,
        "speed_ms": 0.00051606790268969,
        "timestamp1": "2024-03-07 13:07:48.038+00",
        "timestamp2": "2024-03-08 12:10:27.652+00",
        "deltatime_hrs": 23.044337025
      }
    },
    {
      "type": "Feature",
      "geometry": {
        "type": "LineString",
        "coordinates": [
          [-81.9404613946529, 76.3107378836352],
          [-81.9422803107517, 76.3107649813878]
        ]
      },
      "properties": {
        "ID": "ft31",
        "disp_m": 48.1654774990778,
        "speed_ms": 0.000580589465029289,
        "timestamp1": "2024-03-07 13:07:48.038+00",
        "timestamp2": "2024-03-08 12:10:27.652+00",
        "deltatime_hrs": 23.044337025
      }
    },
    {
      "type": "Feature",
      "geometry": {
        "type": "LineString",
        "coordinates": [
          [-81.7807328339223, 76.3034351287719],
          [-81.7778454962542, 76.3035515358541]
        ]
      },
      "properties": {
        "ID": "ft32",
        "disp_m": 77.4443424337255,
        "speed_ms": 0.000933518604564912,
        "timestamp1": "2024-03-07 13:07:48.038+00",
        "timestamp2": "2024-03-08 12:10:27.652+00",
        "deltatime_hrs": 23.044337025
      }
    },
    {
      "type": "Feature",
      "geometry": {
        "type": "LineString",
        "coordinates": [
          [-82.6436161040734, 75.8412036183285],
          [-82.6499907230995, 75.8405679358773]
        ]
      },
      "properties": {
        "ID": "ft33",
        "disp_m": 188.035619556353,
        "speed_ms": 0.00226659228628564,
        "timestamp1": "2024-03-07 13:07:48.038+00",
        "timestamp2": "2024-03-08 12:10:27.652+00",
        "deltatime_hrs": 23.044337025
      }
    },
    {
      "type": "Feature",
      "geometry": {
        "type": "LineString",
        "coordinates": [
          [-82.6388175894596, 75.8474575369837],
          [-82.6404171791086, 75.8471444552864]
        ]
      },
      "properties": {
        "ID": "ft34",
        "disp_m": 55.9371464528719,
        "speed_ms": 0.000674269614268013,
        "timestamp1": "2024-03-07 13:07:48.038+00",
        "timestamp2": "2024-03-08 12:10:27.652+00",
        "deltatime_hrs": 23.044337025
      }
    },
    {
      "type": "Feature",
      "geometry": {
        "type": "LineString",
        "coordinates": [
          [-82.3011662550509, 76.1245571241941],
          [-82.3034132435875, 76.1243205378136]
        ]
      },
      "properties": {
        "ID": "ft35",
        "disp_m": 65.7160211082325,
        "speed_ms": 0.000792144737687126,
        "timestamp1": "2024-03-07 13:07:48.038+00",
        "timestamp2": "2024-03-08 12:10:27.652+00",
        "deltatime_hrs": 23.044337025
      }
    },
    {
      "type": "Feature",
      "geometry": {
        "type": "LineString",
        "coordinates": [
          [-82.6366248173292, 75.8450486020723],
          [-82.6340907820766, 75.845387384474]
        ]
      },
      "properties": {
        "ID": "ft36",
        "disp_m": 78.8595670564787,
        "speed_ms": 0.000950577804416844,
        "timestamp1": "2024-03-07 13:07:48.038+00",
        "timestamp2": "2024-03-08 12:10:27.652+00",
        "deltatime_hrs": 23.044337025
      }
    },
    {
      "type": "Feature",
      "geometry": {
        "type": "LineString",
        "coordinates": [
          [-82.3623416331044, 76.0583315942351],
          [-82.3590305692389, 76.0582963568288]
        ]
      },
      "properties": {
        "ID": "ft37",
        "disp_m": 89.173091542854,
        "speed_ms": 0.0010748976279715,
        "timestamp1": "2024-03-07 13:07:48.038+00",
        "timestamp2": "2024-03-08 12:10:27.652+00",
        "deltatime_hrs": 23.044337025
      }
    },
    {
      "type": "Feature",
      "geometry": {
        "type": "LineString",
        "coordinates": [
          [-82.0513809099138, 76.0397775102889],
          [-82.0459943756737, 76.041240605444]
        ]
      },
      "properties": {
        "ID": "ft38",
        "disp_m": 218.47451075795,
        "speed_ms": 0.00263350444986084,
        "timestamp1": "2024-03-07 13:07:48.038+00",
        "timestamp2": "2024-03-08 12:10:27.652+00",
        "deltatime_hrs": 23.044337025
      }
    },
    {
      "type": "Feature",
      "geometry": {
        "type": "LineString",
        "coordinates": [
          [-81.6670551519927, 76.2288317884189],
          [-81.6711591126128, 76.2271654867916]
        ]
      },
      "properties": {
        "ID": "ft39",
        "disp_m": 215.645059359862,
        "speed_ms": 0.00259939807826776,
        "timestamp1": "2024-03-07 13:07:48.038+00",
        "timestamp2": "2024-03-08 12:10:27.652+00",
        "deltatime_hrs": 23.044337025
      }
    },
    {
      "type": "Feature",
      "geometry": {
        "type": "LineString",
        "coordinates": [
          [-81.667306576692, 76.2241438846694],
          [-81.6680786241406, 76.2240043024914]
        ]
      },
      "properties": {
        "ID": "ft40",
        "disp_m": 25.7736386272818,
        "speed_ms": 0.00031067693791177,
        "timestamp1": "2024-03-07 13:07:48.038+00",
        "timestamp2": "2024-03-08 12:10:27.652+00",
        "deltatime_hrs": 23.044337025
      }
    },
    {
      "type": "Feature",
      "geometry": {
        "type": "LineString",
        "coordinates": [
          [-82.2626669244798, 76.1180176179112],
          [-82.2588352369463, 76.1178407652228]
        ]
      },
      "properties": {
        "ID": "ft41",
        "disp_m": 104.542970873929,
        "speed_ms": 0.00126016704668669,
        "timestamp1": "2024-03-07 13:07:48.038+00",
        "timestamp2": "2024-03-08 12:10:27.652+00",
        "deltatime_hrs": 23.044337025
      }
    },
    {
      "type": "Feature",
      "geometry": {
        "type": "LineString",
        "coordinates": [
          [-82.2433487058982, 76.1180617692775],
          [-82.2410932545125, 76.11794839044]
        ]
      },
      "properties": {
        "ID": "ft42",
        "disp_m": 61.7409061320209,
        "speed_ms": 0.00074422847074027,
        "timestamp1": "2024-03-07 13:07:48.038+00",
        "timestamp2": "2024-03-08 12:10:27.652+00",
        "deltatime_hrs": 23.044337025
      }
    },
    {
      "type": "Feature",
      "geometry": {
        "type": "LineString",
        "coordinates": [
          [-81.9736596618812, 76.0997929576223],
          [-81.9758465912947, 76.1002699715132]
        ]
      },
      "properties": {
        "ID": "ft43",
        "disp_m": 79.2298096910889,
        "speed_ms": 0.000955040730651999,
        "timestamp1": "2024-03-07 13:07:48.038+00",
        "timestamp2": "2024-03-08 12:10:27.652+00",
        "deltatime_hrs": 23.044337025
      }
    },
    {
      "type": "Feature",
      "geometry": {
        "type": "LineString",
        "coordinates": [
          [-81.8287590666617, 76.1411391826417],
          [-81.8298855192224, 76.1412443062839]
        ]
      },
      "properties": {
        "ID": "ft44",
        "disp_m": 32.3358378888082,
        "speed_ms": 0.000389778069188588,
        "timestamp1": "2024-03-07 13:07:48.038+00",
        "timestamp2": "2024-03-08 12:10:27.652+00",
        "deltatime_hrs": 23.044337025
      }
    },
    {
      "type": "Feature",
      "geometry": {
        "type": "LineString",
        "coordinates": [
          [-82.0361712589442, 76.1896487946507],
          [-82.0349798544832, 76.1898598899315]
        ]
      },
      "properties": {
        "ID": "ft45",
        "disp_m": 39.5466670538709,
        "speed_ms": 0.000476697823019359,
        "timestamp1": "2024-03-07 13:07:48.038+00",
        "timestamp2": "2024-03-08 12:10:27.652+00",
        "deltatime_hrs": 23.044337025
      }
    },
    {
      "type": "Feature",
      "geometry": {
        "type": "LineString",
        "coordinates": [
          [-81.6850559719916, 76.1496236742095],
          [-81.6838503525128, 76.1501561108185]
        ]
      },
      "properties": {
        "ID": "ft46",
        "disp_m": 67.6113949020955,
        "speed_ms": 0.000814991683552669,
        "timestamp1": "2024-03-07 13:07:48.038+00",
        "timestamp2": "2024-03-08 12:10:27.652+00",
        "deltatime_hrs": 23.044337025
      }
    },
    {
      "type": "Feature",
      "geometry": {
        "type": "LineString",
        "coordinates": [
          [-81.9605803498367, 76.1864703330516],
          [-81.9623896169201, 76.1869569604527]
        ]
      },
      "properties": {
        "ID": "ft47",
        "disp_m": 72.6497836065209,
        "speed_ms": 0.000875724713814187,
        "timestamp1": "2024-03-07 13:07:48.038+00",
        "timestamp2": "2024-03-08 12:10:27.652+00",
        "deltatime_hrs": 23.044337025
      }
    },
    {
      "type": "Feature",
      "geometry": {
        "type": "LineString",
        "coordinates": [
          [-81.646322056581, 76.1496231550645],
          [-81.6440826989592, 76.1500534994086]
        ]
      },
      "properties": {
        "ID": "ft48",
        "disp_m": 76.7555528514808,
        "speed_ms": 0.00092521589490983,
        "timestamp1": "2024-03-07 13:07:48.038+00",
        "timestamp2": "2024-03-08 12:10:27.652+00",
        "deltatime_hrs": 23.044337025
      }
    },
    {
      "type": "Feature",
      "geometry": {
        "type": "LineString",
        "coordinates": [
          [-82.0384691011759, 76.2487086009184],
          [-82.0400642039804, 76.2487484281742]
        ]
      },
      "properties": {
        "ID": "ft49",
        "disp_m": 42.5754689762987,
        "speed_ms": 0.00051320717741859,
        "timestamp1": "2024-03-07 13:07:48.038+00",
        "timestamp2": "2024-03-08 12:10:27.652+00",
        "deltatime_hrs": 23.044337025
      }
    },
    {
      "type": "Feature",
      "geometry": {
        "type": "LineString",
        "coordinates": [
          [-81.6203471964133, 76.2278887349872],
          [-81.6198357288616, 76.227709398492]
        ]
      },
      "properties": {
        "ID": "ft50",
        "disp_m": 24.2004701029438,
        "speed_ms": 0.000291713873090834,
        "timestamp1": "2024-03-07 13:07:48.038+00",
        "timestamp2": "2024-03-08 12:10:27.652+00",
        "deltatime_hrs": 23.044337025
      }
    },
    {
      "type": "Feature",
      "geometry": {
        "type": "LineString",
        "coordinates": [
          [-81.7597176704078, 76.2470993186735],
          [-81.7630762627222, 76.2476470737926]
        ]
      },
      "properties": {
        "ID": "ft51",
        "disp_m": 108.115856142938,
        "speed_ms": 0.00130323481336636,
        "timestamp1": "2024-03-07 13:07:48.038+00",
        "timestamp2": "2024-03-08 12:10:27.652+00",
        "deltatime_hrs": 23.044337025
      }
    },
    {
      "type": "Feature",
      "geometry": {
        "type": "LineString",
        "coordinates": [
          [-81.6354378076115, 76.2367987012069],
          [-81.6328321435142, 76.2369796090326]
        ]
      },
      "properties": {
        "ID": "ft52",
        "disp_m": 72.1123294840493,
        "speed_ms": 0.000869246210586443,
        "timestamp1": "2024-03-07 13:07:48.038+00",
        "timestamp2": "2024-03-08 12:10:27.652+00",
        "deltatime_hrs": 23.044337025
      }
    },
    {
      "type": "Feature",
      "geometry": {
        "type": "LineString",
        "coordinates": [
          [-81.6466762873444, 76.2452388583726],
          [-81.6426368898203, 76.245001930383]
        ]
      },
      "properties": {
        "ID": "ft53",
        "disp_m": 110.468010171687,
        "speed_ms": 0.00133158781473012,
        "timestamp1": "2024-03-07 13:07:48.038+00",
        "timestamp2": "2024-03-08 12:10:27.652+00",
        "deltatime_hrs": 23.044337025
      }
    },
    {
      "type": "Feature",
      "geometry": {
        "type": "LineString",
        "coordinates": [
          [-82.7954837711741, 76.3908361802431],
          [-82.7865355314174, 76.388662669481]
        ]
      },
      "properties": {
        "ID": "ft54",
        "disp_m": 337.881777617658,
        "speed_ms": 0.0040728465842353,
        "timestamp1": "2024-03-07 13:07:48.038+00",
        "timestamp2": "2024-03-08 12:10:27.652+00",
        "deltatime_hrs": 23.044337025
      }
    },
    {
      "type": "Feature",
      "geometry": {
        "type": "LineString",
        "coordinates": [
          [-81.461601889844, 76.2404563875677],
          [-81.4602494723908, 76.2400750951882]
        ]
      },
      "properties": {
        "ID": "ft55",
        "disp_m": 55.6962522300586,
        "speed_ms": 0.00067136586130606,
        "timestamp1": "2024-03-07 13:07:48.038+00",
        "timestamp2": "2024-03-08 12:10:27.652+00",
        "deltatime_hrs": 23.044337025
      }
    },
    {
      "type": "Feature",
      "geometry": {
        "type": "LineString",
        "coordinates": [
          [-82.4129551973582, 75.9271756949152],
          [-82.4075436745316, 75.9268009107947]
        ]
      },
      "properties": {
        "ID": "ft56",
        "disp_m": 152.783411636419,
        "speed_ms": 0.00184166012324982,
        "timestamp1": "2024-03-07 13:07:48.038+00",
        "timestamp2": "2024-03-08 12:10:27.652+00",
        "deltatime_hrs": 23.044337025
      }
    },
    {
      "type": "Feature",
      "geometry": {
        "type": "LineString",
        "coordinates": [
          [-82.1979543498093, 75.8588896686],
          [-82.2026667380161, 75.8580617369954]
        ]
      },
      "properties": {
        "ID": "ft57",
        "disp_m": 158.33976270317,
        "speed_ms": 0.00190863670192947,
        "timestamp1": "2024-03-07 13:07:48.038+00",
        "timestamp2": "2024-03-08 12:10:27.652+00",
        "deltatime_hrs": 23.044337025
      }
    },
    {
      "type": "Feature",
      "geometry": {
        "type": "LineString",
        "coordinates": [
          [-82.6423139214404, 75.845495946498],
          [-82.6400456668646, 75.8454938446748]
        ]
      },
      "properties": {
        "ID": "ft58",
        "disp_m": 61.9416413712819,
        "speed_ms": 0.000746648144980545,
        "timestamp1": "2024-03-07 13:07:48.038+00",
        "timestamp2": "2024-03-08 12:10:27.652+00",
        "deltatime_hrs": 23.044337025
      }
    },
    {
      "type": "Feature",
      "geometry": {
        "type": "LineString",
        "coordinates": [
          [-80.9143355342098, 76.2696732889033],
          [-81.1625958305817, 76.5343653408543]
        ]
      },
      "properties": {
        "ID": "ft59",
        "disp_m": 30258.3226273991,
        "speed_ms": 0.364735579487646,
        "timestamp1": "2024-03-07 13:07:48.038+00",
        "timestamp2": "2024-03-08 12:10:27.652+00",
        "deltatime_hrs": 23.044337025
      }
    },
    {
      "type": "Feature",
      "geometry": {
        "type": "LineString",
        "coordinates": [
          [-81.847295038831, 76.3153239003552],
          [-81.8516170539986, 76.315242518943]
        ]
      },
      "properties": {
        "ID": "ft60",
        "disp_m": 114.546154062577,
        "speed_ms": 0.0013807459982023,
        "timestamp1": "2024-03-07 13:07:48.038+00",
        "timestamp2": "2024-03-08 12:10:27.652+00",
        "deltatime_hrs": 23.044337025
      }
    },
    {
      "type": "Feature",
      "geometry": {
        "type": "LineString",
        "coordinates": [
          [-81.6463270499843, 76.244488621188],
          [-81.6479077663614, 76.2450829143993]
        ]
      },
      "properties": {
        "ID": "ft61",
        "disp_m": 78.5037236589892,
        "speed_ms": 0.00094628844742279,
        "timestamp1": "2024-03-07 13:07:48.038+00",
        "timestamp2": "2024-03-08 12:10:27.652+00",
        "deltatime_hrs": 23.044337025
      }
    },
    {
      "type": "Feature",
      "geometry": {
        "type": "LineString",
        "coordinates": [
          [-81.6192265082087, 76.227044668715],
          [-81.6219622921764, 76.2282557108554]
        ]
      },
      "properties": {
        "ID": "ft62",
        "disp_m": 153.511801437193,
        "speed_ms": 0.00185044017624053,
        "timestamp1": "2024-03-07 13:07:48.038+00",
        "timestamp2": "2024-03-08 12:10:27.652+00",
        "deltatime_hrs": 23.044337025
      }
    },
    {
      "type": "Feature",
      "geometry": {
        "type": "LineString",
        "coordinates": [
          [-81.540680712724, 76.176393067924],
          [-81.5407020146305, 76.1762532705578]
        ]
      },
      "properties": {
        "ID": "ft63",
        "disp_m": 15.6158643261036,
        "speed_ms": 0.000188234536141285,
        "timestamp1": "2024-03-07 13:07:48.038+00",
        "timestamp2": "2024-03-08 12:10:27.652+00",
        "deltatime_hrs": 23.044337025
      }
    },
    {
      "type": "Feature",
      "geometry": {
        "type": "LineString",
        "coordinates": [
          [-81.6447842951387, 76.1494355115556],
          [-81.6466004803677, 76.1501953060545]
        ]
      },
      "properties": {
        "ID": "ft64",
        "disp_m": 97.7285635356332,
        "speed_ms": 0.0011780257845948,
        "timestamp1": "2024-03-07 13:07:48.038+00",
        "timestamp2": "2024-03-08 12:10:27.652+00",
        "deltatime_hrs": 23.044337025
      }
    },
    {
      "type": "Feature",
      "geometry": {
        "type": "LineString",
        "coordinates": [
          [-81.8264735084503, 76.1403910053478],
          [-81.8307248239, 76.1412909878926]
        ]
      },
      "properties": {
        "ID": "ft65",
        "disp_m": 151.741599744374,
        "speed_ms": 0.00182910206215565,
        "timestamp1": "2024-03-07 13:07:48.038+00",
        "timestamp2": "2024-03-08 12:10:27.652+00",
        "deltatime_hrs": 23.044337025
      }
    },
    {
      "type": "Feature",
      "geometry": {
        "type": "LineString",
        "coordinates": [
          [-82.0465622897094, 76.0356659739027],
          [-82.0495786141203, 76.035681943187]
        ]
      },
      "properties": {
        "ID": "ft66",
        "disp_m": 81.3048068758486,
        "speed_ms": 0.000980052867310666,
        "timestamp1": "2024-03-07 13:07:48.038+00",
        "timestamp2": "2024-03-08 12:10:27.652+00",
        "deltatime_hrs": 23.044337025
      }
    },
    {
      "type": "Feature",
      "geometry": {
        "type": "LineString",
        "coordinates": [
          [-81.8382191927831, 76.1375724692773],
          [-81.8393323380554, 76.1379287946875]
        ]
      },
      "properties": {
        "ID": "ft67",
        "disp_m": 49.6906646033538,
        "speed_ms": 0.000598974159024238,
        "timestamp1": "2024-03-07 13:07:48.038+00",
        "timestamp2": "2024-03-08 12:10:27.652+00",
        "deltatime_hrs": 23.044337025
      }
    },
    {
      "type": "Feature",
      "geometry": {
        "type": "LineString",
        "coordinates": [
          [-82.1949119363284, 76.0831505185816],
          [-82.1889239806098, 76.0829574045785]
        ]
      },
      "properties": {
        "ID": "ft68",
        "disp_m": 162.267935845928,
        "speed_ms": 0.00195598712928774,
        "timestamp1": "2024-03-07 13:07:48.038+00",
        "timestamp2": "2024-03-08 12:10:27.652+00",
        "deltatime_hrs": 23.044337025
      }
    },
    {
      "type": "Feature",
      "geometry": {
        "type": "LineString",
        "coordinates": [
          [-82.2611260507456, 76.1178338583166],
          [-82.2617374261075, 76.1175712787975]
        ]
      },
      "properties": {
        "ID": "ft69",
        "disp_m": 33.578170828323,
        "speed_ms": 0.00040475322264274,
        "timestamp1": "2024-03-07 13:07:48.038+00",
        "timestamp2": "2024-03-08 12:10:27.652+00",
        "deltatime_hrs": 23.044337025
      }
    },
    {
      "type": "Feature",
      "geometry": {
        "type": "LineString",
        "coordinates": [
          [-82.167172159969, 76.0826432623726],
          [-82.1676854012884, 76.083079779724]
        ]
      },
      "properties": {
        "ID": "ft70",
        "disp_m": 50.6402791186437,
        "speed_ms": 0.000610420867580731,
        "timestamp1": "2024-03-07 13:07:48.038+00",
        "timestamp2": "2024-03-08 12:10:27.652+00",
        "deltatime_hrs": 23.044337025
      }
    },
    {
      "type": "Feature",
      "geometry": {
        "type": "LineString",
        "coordinates": [
          [-81.7514438827242, 76.1539210145905],
          [-81.7485193788562, 76.1546345887236]
        ]
      },
      "properties": {
        "ID": "ft71",
        "disp_m": 111.594049067364,
        "speed_ms": 0.00134516115302114,
        "timestamp1": "2024-03-07 13:07:48.038+00",
        "timestamp2": "2024-03-08 12:10:27.652+00",
        "deltatime_hrs": 23.044337025
      }
    },
    {
      "type": "Feature",
      "geometry": {
        "type": "LineString",
        "coordinates": [
          [-81.7582998860779, 76.1561676921535],
          [-81.7624348462588, 76.1566926140289]
        ]
      },
      "properties": {
        "ID": "ft72",
        "disp_m": 125.063289070948,
        "speed_ms": 0.0015075201548224,
        "timestamp1": "2024-03-07 13:07:48.038+00",
        "timestamp2": "2024-03-08 12:10:27.652+00",
        "deltatime_hrs": 23.044337025
      }
    },
    {
      "type": "Feature",
      "geometry": {
        "type": "LineString",
        "coordinates": [
          [-82.0394971393707, 76.0390453155039],
          [-82.041076485697, 76.0390502222287]
        ]
      },
      "properties": {
        "ID": "ft73",
        "disp_m": 42.5543833931873,
        "speed_ms": 0.000512953010574325,
        "timestamp1": "2024-03-07 13:07:48.038+00",
        "timestamp2": "2024-03-08 12:10:27.652+00",
        "deltatime_hrs": 23.044337025
      }
    },
    {
      "type": "Feature",
      "geometry": {
        "type": "LineString",
        "coordinates": [
          [-82.2024247273385, 75.8613146247188],
          [-82.2036079424532, 75.8625893520805]
        ]
      },
      "properties": {
        "ID": "ft74",
        "disp_m": 145.90778489928,
        "speed_ms": 0.00175878091896636,
        "timestamp1": "2024-03-07 13:07:48.038+00",
        "timestamp2": "2024-03-08 12:10:27.652+00",
        "deltatime_hrs": 23.044337025
      }
    },
    {
      "type": "Feature",
      "geometry": {
        "type": "LineString",
        "coordinates": [
          [-82.0087371157327, 76.2526909593639],
          [-82.0150282671081, 76.2525053395056]
        ]
      },
      "properties": {
        "ID": "ft75",
        "disp_m": 168.236203035238,
        "speed_ms": 0.00202792896884823,
        "timestamp1": "2024-03-07 13:07:48.038+00",
        "timestamp2": "2024-03-08 12:10:27.652+00",
        "deltatime_hrs": 23.044337025
      }
    },
    {
      "type": "Feature",
      "geometry": {
        "type": "LineString",
        "coordinates": [
          [-82.1301236302456, 76.0838345864118],
          [-82.1352471365645, 76.0838676062263]
        ]
      },
      "properties": {
        "ID": "ft76",
        "disp_m": 137.653160937633,
        "speed_ms": 0.00165927920199485,
        "timestamp1": "2024-03-07 13:07:48.038+00",
        "timestamp2": "2024-03-08 12:10:27.652+00",
        "deltatime_hrs": 23.044337025
      }
    },
    {
      "type": "Feature",
      "geometry": {
        "type": "LineString",
        "coordinates": [
          [-81.4315156943687, 76.235364023561],
          [-81.432750830513, 76.2355218731788]
        ]
      },
      "properties": {
        "ID": "ft77",
        "disp_m": 37.2495779113759,
        "speed_ms": 0.000449008576994729,
        "timestamp1": "2024-03-07 13:07:48.038+00",
        "timestamp2": "2024-03-08 12:10:27.652+00",
        "deltatime_hrs": 23.044337025
      }
    },
    {
      "type": "Feature",
      "geometry": {
        "type": "LineString",
        "coordinates": [
          [-82.3094098736355, 75.86445441805],
          [-82.3108538077281, 75.864669020601]
        ]
      },
      "properties": {
        "ID": "ft78",
        "disp_m": 46.0927939112674,
        "speed_ms": 0.000555605216602709,
        "timestamp1": "2024-03-07 13:07:48.038+00",
        "timestamp2": "2024-03-08 12:10:27.652+00",
        "deltatime_hrs": 23.044337025
      }
    },
    {
      "type": "Feature",
      "geometry": {
        "type": "LineString",
        "coordinates": [
          [-82.3614844027039, 76.0588391369333],
          [-82.3629904115935, 76.0583814175547]
        ]
      },
      "properties": {
        "ID": "ft79",
        "disp_m": 65.2109051841998,
        "speed_ms": 0.000786056040982779,
        "timestamp1": "2024-03-07 13:07:48.038+00",
        "timestamp2": "2024-03-08 12:10:27.652+00",
        "deltatime_hrs": 23.044337025
      }
    },
    {
      "type": "Feature",
      "geometry": {
        "type": "LineString",
        "coordinates": [
          [-82.6395793277364, 75.8457302523476],
          [-82.6401504755555, 75.8465203080255]
        ]
      },
      "properties": {
        "ID": "ft80",
        "disp_m": 89.5595812764479,
        "speed_ms": 0.00107955639768205,
        "timestamp1": "2024-03-07 13:07:48.038+00",
        "timestamp2": "2024-03-08 12:10:27.652+00",
        "deltatime_hrs": 23.044337025
      }
    },
    {
      "type": "Feature",
      "geometry": {
        "type": "LineString",
        "coordinates": [
          [-81.4692886725239, 76.2445136016676],
          [-81.4741887354283, 76.2442841197603]
        ]
      },
      "properties": {
        "ID": "ft81",
        "disp_m": 132.612249409075,
        "speed_ms": 0.00159851576146462,
        "timestamp1": "2024-03-07 13:07:48.038+00",
        "timestamp2": "2024-03-08 12:10:27.652+00",
        "deltatime_hrs": 23.044337025
      }
    },
    {
      "type": "Feature",
      "geometry": {
        "type": "LineString",
        "coordinates": [
          [-81.6434750840663, 76.2452759449401],
          [-81.6410558802624, 76.2444436379522]
        ]
      },
      "properties": {
        "ID": "ft82",
        "disp_m": 112.954445744682,
        "speed_ms": 0.00136155945363233,
        "timestamp1": "2024-03-07 13:07:48.038+00",
        "timestamp2": "2024-03-08 12:10:27.652+00",
        "deltatime_hrs": 23.044337025
      }
    },
    {
      "type": "Feature",
      "geometry": {
        "type": "LineString",
        "coordinates": [
          [-81.76125610657, 76.2493116197804],
          [-81.7595521658884, 76.2479639490897]
        ]
      },
      "properties": {
        "ID": "ft83",
        "disp_m": 157.093502303871,
        "speed_ms": 0.00189361420664683,
        "timestamp1": "2024-03-07 13:07:48.038+00",
        "timestamp2": "2024-03-08 12:10:27.652+00",
        "deltatime_hrs": 23.044337025
      }
    },
    {
      "type": "Feature",
      "geometry": {
        "type": "LineString",
        "coordinates": [
          [-82.4001513467385, 75.926668334807],
          [-82.3977049380116, 75.9269060118109]
        ]
      },
      "properties": {
        "ID": "ft84",
        "disp_m": 71.5325818306995,
        "speed_ms": 0.000862257898679502,
        "timestamp1": "2024-03-07 13:07:48.038+00",
        "timestamp2": "2024-03-08 12:10:27.652+00",
        "deltatime_hrs": 23.044337025
      }
    },
    {
      "type": "Feature",
      "geometry": {
        "type": "LineString",
        "coordinates": [
          [-81.5219478207304, 76.1709835179887],
          [-81.5173574159219, 76.1698004368387]
        ]
      },
      "properties": {
        "ID": "ft85",
        "disp_m": 180.156547491433,
        "speed_ms": 0.0021716174937034,
        "timestamp1": "2024-03-07 13:07:48.038+00",
        "timestamp2": "2024-03-08 12:10:27.652+00",
        "deltatime_hrs": 23.044337025
      }
    },
    {
      "type": "Feature",
      "geometry": {
        "type": "LineString",
        "coordinates": [
          [-81.8306424101149, 76.1406132514025],
          [-81.8266991410004, 76.1410669625432]
        ]
      },
      "properties": {
        "ID": "ft86",
        "disp_m": 117.010025129563,
        "speed_ms": 0.00141044564323767,
        "timestamp1": "2024-03-07 13:07:48.038+00",
        "timestamp2": "2024-03-08 12:10:27.652+00",
        "deltatime_hrs": 23.044337025
      }
    },
    {
      "type": "Feature",
      "geometry": {
        "type": "LineString",
        "coordinates": [
          [-81.8418854484932, 76.1385818881867],
          [-81.8355983473122, 76.1384892754539]
        ]
      },
      "properties": {
        "ID": "ft87",
        "disp_m": 168.522033296168,
        "speed_ms": 0.00203137438342522,
        "timestamp1": "2024-03-07 13:07:48.038+00",
        "timestamp2": "2024-03-08 12:10:27.652+00",
        "deltatime_hrs": 23.044337025
      }
    },
    {
      "type": "Feature",
      "geometry": {
        "type": "LineString",
        "coordinates": [
          [-82.150002950172, 76.0842480724893],
          [-82.1478338136522, 76.0850658298727]
        ]
      },
      "properties": {
        "ID": "ft88",
        "disp_m": 108.289015216377,
        "speed_ms": 0.00130532208290116,
        "timestamp1": "2024-03-07 13:07:48.038+00",
        "timestamp2": "2024-03-08 12:10:27.652+00",
        "deltatime_hrs": 23.044337025
      }
    },
    {
      "type": "Feature",
      "geometry": {
        "type": "LineString",
        "coordinates": [
          [-82.3084858507337, 75.8649058391481],
          [-82.3065890986691, 75.8636678806098]
        ]
      },
      "properties": {
        "ID": "ft89",
        "disp_m": 147.553828217915,
        "speed_ms": 0.00177862242079305,
        "timestamp1": "2024-03-07 13:07:48.038+00",
        "timestamp2": "2024-03-08 12:10:27.652+00",
        "deltatime_hrs": 23.044337025
      }
    },
    {
      "type": "Feature",
      "geometry": {
        "type": "LineString",
        "coordinates": [
          [-82.6423533576443, 75.8410053789363],
          [-82.6454559099945, 75.8406792261385]
        ]
      },
      "properties": {
        "ID": "ft90",
        "disp_m": 92.2403537593415,
        "speed_ms": 0.00111187058499054,
        "timestamp1": "2024-03-07 13:07:48.038+00",
        "timestamp2": "2024-03-08 12:10:27.652+00",
        "deltatime_hrs": 23.044337025
      }
    },
    {
      "type": "Feature",
      "geometry": {
        "type": "LineString",
        "coordinates": [
          [-81.6851827693955, 76.1501109193728],
          [-81.6825666590197, 76.1514504192025]
        ]
      },
      "properties": {
        "ID": "ft91",
        "disp_m": 165.071951758431,
        "speed_ms": 0.00198978690005934,
        "timestamp1": "2024-03-07 13:07:48.038+00",
        "timestamp2": "2024-03-08 12:10:27.652+00",
        "deltatime_hrs": 23.044337025
      }
    },
    {
      "type": "Feature",
      "geometry": {
        "type": "LineString",
        "coordinates": [
          [-81.7807422010272, 76.2533543736827],
          [-81.7856581235368, 76.2540174918066]
        ]
      },
      "properties": {
        "ID": "ft92",
        "disp_m": 149.988500439788,
        "speed_ms": 0.00180797010125248,
        "timestamp1": "2024-03-07 13:07:48.038+00",
        "timestamp2": "2024-03-08 12:10:27.652+00",
        "deltatime_hrs": 23.044337025
      }
    },
    {
      "type": "Feature",
      "geometry": {
        "type": "LineString",
        "coordinates": [
          [-81.4554660695908, 76.2411256697591],
          [-81.4528344110554, 76.2399964937715]
        ]
      },
      "properties": {
        "ID": "ft93",
        "disp_m": 144.133679569712,
        "speed_ms": 0.00173739575021724,
        "timestamp1": "2024-03-07 13:07:48.038+00",
        "timestamp2": "2024-03-08 12:10:27.652+00",
        "deltatime_hrs": 23.044337025
      }
    },
    {
      "type": "Feature",
      "geometry": {
        "type": "LineString",
        "coordinates": [
          [-82.2016460010611, 75.870526700738],
          [-82.2007031218837, 75.8701006392346]
        ]
      },
      "properties": {
        "ID": "ft94",
        "disp_m": 54.0613097064078,
        "speed_ms": 0.00065165816910726,
        "timestamp1": "2024-03-07 13:07:48.038+00",
        "timestamp2": "2024-03-08 12:10:27.652+00",
        "deltatime_hrs": 23.044337025
      }
    },
    {
      "type": "Feature",
      "geometry": {
        "type": "LineString",
        "coordinates": [
          [-82.0159299267767, 76.1815805791804],
          [-82.0161315588261, 76.1822231951965]
        ]
      },
      "properties": {
        "ID": "ft95",
        "disp_m": 71.9362741974766,
        "speed_ms": 0.00086712402993021,
        "timestamp1": "2024-03-07 13:07:48.038+00",
        "timestamp2": "2024-03-08 12:10:27.652+00",
        "deltatime_hrs": 23.044337025
      }
    },
    {
      "type": "Feature",
      "geometry": {
        "type": "LineString",
        "coordinates": [
          [-82.4307697336016, 75.876313604433],
          [-82.4415868963223, 75.87686715438]
        ]
      },
      "properties": {
        "ID": "ft96",
        "disp_m": 301.165259548993,
        "speed_ms": 0.00363026354156469,
        "timestamp1": "2024-03-07 13:07:48.038+00",
        "timestamp2": "2024-03-08 12:10:27.652+00",
        "deltatime_hrs": 23.044337025
      }
    },
    {
      "type": "Feature",
      "geometry": {
        "type": "LineString",
        "coordinates": [
          [-82.159074930316, 75.8534869628055],
          [-82.1791255473323, 75.8532516573332]
        ]
      },
      "properties": {
        "ID": "ft97",
        "disp_m": 547.871334786658,
        "speed_ms": 0.00660407291041096,
        "timestamp1": "2024-03-07 13:07:48.038+00",
        "timestamp2": "2024-03-08 12:10:27.652+00",
        "deltatime_hrs": 23.044337025
      }
    },
    {
      "type": "Feature",
      "geometry": {
        "type": "LineString",
        "coordinates": [
          [-82.1978211596748, 75.8703992016824],
          [-82.201528233737, 75.8692254924133]
        ]
      },
      "properties": {
        "ID": "ft98",
        "disp_m": 165.46619470734,
        "speed_ms": 0.00199453912747789,
        "timestamp1": "2024-03-07 13:07:48.038+00",
        "timestamp2": "2024-03-08 12:10:27.652+00",
        "deltatime_hrs": 23.044337025
      }
    },
    {
      "type": "Feature",
      "geometry": {
        "type": "LineString",
        "coordinates": [
          [-81.7441812085295, 76.6699775265282],
          [-81.7770420048724, 76.6749459296982]
        ]
      },
      "properties": {
        "ID": "ft99",
        "disp_m": 1011.54554640027,
        "speed_ms": 0.0121932288047707,
        "timestamp1": "2024-03-07 13:07:48.038+00",
        "timestamp2": "2024-03-08 12:10:27.652+00",
        "deltatime_hrs": 23.044337025
      }
    },
    {
      "type": "Feature",
      "geometry": {
        "type": "LineString",
        "coordinates": [
          [-81.9860699300399, 76.3304261949024],
          [-81.9868837504534, 76.3307303835278]
        ]
      },
      "properties": {
        "ID": "ft100",
        "disp_m": 40.1788015910444,
        "speed_ms": 0.000484317609468504,
        "timestamp1": "2024-03-07 13:07:48.038+00",
        "timestamp2": "2024-03-08 12:10:27.652+00",
        "deltatime_hrs": 23.044337025
      }
    },
    {
      "type": "Feature",
      "geometry": {
        "type": "LineString",
        "coordinates": [
          [-82.2773746341862, 76.0748164345064],
          [-82.2854122891483, 76.0762757361696]
        ]
      },
      "properties": {
        "ID": "ft101",
        "disp_m": 270.537942757455,
        "speed_ms": 0.00326108008497752,
        "timestamp1": "2024-03-07 13:07:48.038+00",
        "timestamp2": "2024-03-08 12:10:27.652+00",
        "deltatime_hrs": 23.044337025
      }
    },
    {
      "type": "Feature",
      "geometry": {
        "type": "LineString",
        "coordinates": [
          [-81.6446284386315, 76.244735913805],
          [-81.6480136382632, 76.2439100202165]
        ]
      },
      "properties": {
        "ID": "ft102",
        "disp_m": 128.763475141148,
        "speed_ms": 0.00155212241275803,
        "timestamp1": "2024-03-07 13:07:48.038+00",
        "timestamp2": "2024-03-08 12:10:27.652+00",
        "deltatime_hrs": 23.044337025
      }
    },
    {
      "type": "Feature",
      "geometry": {
        "type": "LineString",
        "coordinates": [
          [-81.7823463976874, 76.2552440028063],
          [-81.7832861164798, 76.2551154475313]
        ]
      },
      "properties": {
        "ID": "ft103",
        "disp_m": 28.7686368268288,
        "speed_ms": 0.00034677882027081,
        "timestamp1": "2024-03-07 13:07:48.038+00",
        "timestamp2": "2024-03-08 12:10:27.652+00",
        "deltatime_hrs": 23.044337025
      }
    },
    {
      "type": "Feature",
      "geometry": {
        "type": "LineString",
        "coordinates": [
          [-81.7624043783392, 76.2487709876293],
          [-81.7665680201932, 76.2486597198548]
        ]
      },
      "properties": {
        "ID": "ft104",
        "disp_m": 111.221530706335,
        "speed_ms": 0.00134067079504747,
        "timestamp1": "2024-03-07 13:07:48.038+00",
        "timestamp2": "2024-03-08 12:10:27.652+00",
        "deltatime_hrs": 23.044337025
      }
    },
    {
      "type": "Feature",
      "geometry": {
        "type": "LineString",
        "coordinates": [
          [-81.6153067748021, 76.2269086518707],
          [-81.6193552987586, 76.2279145464525]
        ]
      },
      "properties": {
        "ID": "ft105",
        "disp_m": 155.542587601929,
        "speed_ms": 0.00187491939069439,
        "timestamp1": "2024-03-07 13:07:48.038+00",
        "timestamp2": "2024-03-08 12:10:27.652+00",
        "deltatime_hrs": 23.044337025
      }
    },
    {
      "type": "Feature",
      "geometry": {
        "type": "LineString",
        "coordinates": [
          [-81.6554397867393, 76.2317752449752],
          [-81.660240288873, 76.231679566936]
        ]
      },
      "properties": {
        "ID": "ft106",
        "disp_m": 128.032139927113,
        "speed_ms": 0.0015433068555847,
        "timestamp1": "2024-03-07 13:07:48.038+00",
        "timestamp2": "2024-03-08 12:10:27.652+00",
        "deltatime_hrs": 23.044337025
      }
    },
    {
      "type": "Feature",
      "geometry": {
        "type": "LineString",
        "coordinates": [
          [-81.9106280713275, 76.2502887366805],
          [-81.9178746399676, 76.2514572264251]
        ]
      },
      "properties": {
        "ID": "ft107",
        "disp_m": 232.393225817537,
        "speed_ms": 0.00280128145010953,
        "timestamp1": "2024-03-07 13:07:48.038+00",
        "timestamp2": "2024-03-08 12:10:27.652+00",
        "deltatime_hrs": 23.044337025
      }
    },
    {
      "type": "Feature",
      "geometry": {
        "type": "LineString",
        "coordinates": [
          [-81.5311197521591, 76.1758476729592],
          [-81.5329052061118, 76.1746829177559]
        ]
      },
      "properties": {
        "ID": "ft108",
        "disp_m": 138.475334831585,
        "speed_ms": 0.00166918973389522,
        "timestamp1": "2024-03-07 13:07:48.038+00",
        "timestamp2": "2024-03-08 12:10:27.652+00",
        "deltatime_hrs": 23.044337025
      }
    },
    {
      "type": "Feature",
      "geometry": {
        "type": "LineString",
        "coordinates": [
          [-81.842635955498, 76.1831146491172],
          [-81.8467201659893, 76.1830414871121]
        ]
      },
      "properties": {
        "ID": "ft109",
        "disp_m": 109.230256679399,
        "speed_ms": 0.00131666786219899,
        "timestamp1": "2024-03-07 13:07:48.038+00",
        "timestamp2": "2024-03-08 12:10:27.652+00",
        "deltatime_hrs": 23.044337025
      }
    },
    {
      "type": "Feature",
      "geometry": {
        "type": "LineString",
        "coordinates": [
          [-81.834602500645, 76.1393962677394],
          [-81.8353795164865, 76.1400133303964]
        ]
      },
      "properties": {
        "ID": "ft110",
        "disp_m": 71.9502523760405,
        "speed_ms": 0.000867292523706995,
        "timestamp1": "2024-03-07 13:07:48.038+00",
        "timestamp2": "2024-03-08 12:10:27.652+00",
        "deltatime_hrs": 23.044337025
      }
    },
    {
      "type": "Feature",
      "geometry": {
        "type": "LineString",
        "coordinates": [
          [-81.9497317411451, 76.2956227559353],
          [-81.9516460332936, 76.295669316605]
        ]
      },
      "properties": {
        "ID": "ft111",
        "disp_m": 50.9117412171925,
        "speed_ms": 0.000613693087493326,
        "timestamp1": "2024-03-07 13:07:48.038+00",
        "timestamp2": "2024-03-08 12:10:27.652+00",
        "deltatime_hrs": 23.044337025
      }
    },
    {
      "type": "Feature",
      "geometry": {
        "type": "LineString",
        "coordinates": [
          [-82.1255158540015, 76.0403498487617],
          [-82.1299250239906, 76.0402050393916]
        ]
      },
      "properties": {
        "ID": "ft112",
        "disp_m": 119.876787689659,
        "speed_ms": 0.00144500176574604,
        "timestamp1": "2024-03-07 13:07:48.038+00",
        "timestamp2": "2024-03-08 12:10:27.652+00",
        "deltatime_hrs": 23.044337025
      }
    },
    {
      "type": "Feature",
      "geometry": {
        "type": "LineString",
        "coordinates": [
          [-82.398157302648, 75.9275092793692],
          [-82.3927504724213, 75.9279246343349]
        ]
      },
      "properties": {
        "ID": "ft113",
        "disp_m": 153.956485322413,
        "speed_ms": 0.00185580042163686,
        "timestamp1": "2024-03-07 13:07:48.038+00",
        "timestamp2": "2024-03-08 12:10:27.652+00",
        "deltatime_hrs": 23.044337025
      }
    },
    {
      "type": "Feature",
      "geometry": {
        "type": "LineString",
        "coordinates": [
          [-82.6517092451439, 75.8461713716296],
          [-82.6385967619801, 75.8463143500038]
        ]
      },
      "properties": {
        "ID": "ft114",
        "disp_m": 358.41096639951,
        "speed_ms": 0.00432030661891613,
        "timestamp1": "2024-03-07 13:07:48.038+00",
        "timestamp2": "2024-03-08 12:10:27.652+00",
        "deltatime_hrs": 23.044337025
      }
    },
    {
      "type": "Feature",
      "geometry": {
        "type": "LineString",
        "coordinates": [
          [-82.0348215091562, 75.8321600471953],
          [-82.0408365627853, 75.8333646638346]
        ]
      },
      "properties": {
        "ID": "ft115",
        "disp_m": 212.390457444091,
        "speed_ms": 0.00256016691762584,
        "timestamp1": "2024-03-07 13:07:48.038+00",
        "timestamp2": "2024-03-08 12:10:27.652+00",
        "deltatime_hrs": 23.044337025
      }
    },
    {
      "type": "Feature",
      "geometry": {
        "type": "LineString",
        "coordinates": [
          [-81.762983763898, 76.2508771812938],
          [-81.7644140742128, 76.2492779245763]
        ]
      },
      "properties": {
        "ID": "ft116",
        "disp_m": 182.517448476041,
        "speed_ms": 0.00220007593138144,
        "timestamp1": "2024-03-07 13:07:48.038+00",
        "timestamp2": "2024-03-08 12:10:27.652+00",
        "deltatime_hrs": 23.044337025
      }
    },
    {
      "type": "Feature",
      "geometry": {
        "type": "LineString",
        "coordinates": [
          [-81.779080276727, 76.2528148893692],
          [-81.7777880157459, 76.2544427402146]
        ]
      },
      "properties": {
        "ID": "ft117",
        "disp_m": 184.924662812045,
        "speed_ms": 0.00222909263288883,
        "timestamp1": "2024-03-07 13:07:48.038+00",
        "timestamp2": "2024-03-08 12:10:27.652+00",
        "deltatime_hrs": 23.044337025
      }
    },
    {
      "type": "Feature",
      "geometry": {
        "type": "LineString",
        "coordinates": [
          [-81.650690132525, 76.2324229056369],
          [-81.6522503140408, 76.231970739565]
        ]
      },
      "properties": {
        "ID": "ft118",
        "disp_m": 65.3227674800026,
        "speed_ms": 0.000787404435597539,
        "timestamp1": "2024-03-07 13:07:48.038+00",
        "timestamp2": "2024-03-08 12:10:27.652+00",
        "deltatime_hrs": 23.044337025
      }
    },
    {
      "type": "Feature",
      "geometry": {
        "type": "LineString",
        "coordinates": [
          [-81.6147083086407, 76.2256123907021],
          [-81.6193552987586, 76.2279145464525]
        ]
      },
      "properties": {
        "ID": "ft119",
        "disp_m": 285.145886870734,
        "speed_ms": 0.00343716509229564,
        "timestamp1": "2024-03-07 13:07:48.038+00",
        "timestamp2": "2024-03-08 12:10:27.652+00",
        "deltatime_hrs": 23.044337025
      }
    },
    {
      "type": "Feature",
      "geometry": {
        "type": "LineString",
        "coordinates": [
          [-82.1432280232011, 76.0843142946206],
          [-82.1453345797093, 76.0844997657156]
        ]
      },
      "properties": {
        "ID": "ft120",
        "disp_m": 60.2437053894179,
        "speed_ms": 0.000726181125975423,
        "timestamp1": "2024-03-07 13:07:48.038+00",
        "timestamp2": "2024-03-08 12:10:27.652+00",
        "deltatime_hrs": 23.044337025
      }
    },
    {
      "type": "Feature",
      "geometry": {
        "type": "LineString",
        "coordinates": [
          [-81.8507832033823, 76.180841156903],
          [-81.8481756184099, 76.1831220331358]
        ]
      },
      "properties": {
        "ID": "ft121",
        "disp_m": 263.941225838614,
        "speed_ms": 0.00318156287585335,
        "timestamp1": "2024-03-07 13:07:48.038+00",
        "timestamp2": "2024-03-08 12:10:27.652+00",
        "deltatime_hrs": 23.044337025
      }
    },
    {
      "type": "Feature",
      "geometry": {
        "type": "LineString",
        "coordinates": [
          [-81.8285999336838, 76.1390762583769],
          [-81.8350364374475, 76.1403629798708]
        ]
      },
      "properties": {
        "ID": "ft122",
        "disp_m": 224.23132593384,
        "speed_ms": 0.00270289743456252,
        "timestamp1": "2024-03-07 13:07:48.038+00",
        "timestamp2": "2024-03-08 12:10:27.652+00",
        "deltatime_hrs": 23.044337025
      }
    },
    {
      "type": "Feature",
      "geometry": {
        "type": "LineString",
        "coordinates": [
          [-82.639776265815, 75.861734073848],
          [-82.6318496262109, 75.8635941197162]
        ]
      },
      "properties": {
        "ID": "ft123",
        "disp_m": 299.756628630711,
        "speed_ms": 0.00361328382260967,
        "timestamp1": "2024-03-07 13:07:48.038+00",
        "timestamp2": "2024-03-08 12:10:27.652+00",
        "deltatime_hrs": 23.044337025
      }
    },
    {
      "type": "Feature",
      "geometry": {
        "type": "LineString",
        "coordinates": [
          [-82.1130322818757, 76.0368128489897],
          [-82.1181896913665, 76.0366147552692]
        ]
      },
      "properties": {
        "ID": "ft124",
        "disp_m": 140.722291024537,
        "speed_ms": 0.00169627467443246,
        "timestamp1": "2024-03-07 13:07:48.038+00",
        "timestamp2": "2024-03-08 12:10:27.652+00",
        "deltatime_hrs": 23.044337025
      }
    },
    {
      "type": "Feature",
      "geometry": {
        "type": "LineString",
        "coordinates": [
          [-82.1517545292768, 75.8562495336524],
          [-82.1548179680625, 75.8552154626366]
        ]
      },
      "properties": {
        "ID": "ft125",
        "disp_m": 142.521778090399,
        "speed_ms": 0.00171796579610598,
        "timestamp1": "2024-03-07 13:07:48.038+00",
        "timestamp2": "2024-03-08 12:10:27.652+00",
        "deltatime_hrs": 23.044337025
      }
    },
    {
      "type": "Feature",
      "geometry": {
        "type": "LineString",
        "coordinates": [
          [-82.2024396670064, 75.8697432517779],
          [-82.1961608781641, 75.8685599786275]
        ]
      },
      "properties": {
        "ID": "ft126",
        "disp_m": 216.214978519958,
        "speed_ms": 0.00260626791694581,
        "timestamp1": "2024-03-07 13:07:48.038+00",
        "timestamp2": "2024-03-08 12:10:27.652+00",
        "deltatime_hrs": 23.044337025
      }
    }
  ]
}

